[{"OBJECT_NAME":"OBJECT F","OBJECT_ID":"2024-024F","EPOCH":"2026-03-09T22:33:03.733056","MEAN_MOTION":15.20287854,"ECCENTRICITY":0.00130865,"INCLINATION":97.3129,"RA_OF_ASC_NODE":136.438,"ARG_OF_PERICENTER":36.354,"MEAN_ANOMALY":323.8582,"EPHEMERIS_TYPE":0,"CLASSIFICATION_TYPE":"U","NORAD_CAT_ID":58922,"ELEMENT_SET_NO":999,"REV_AT_EPOCH":11617,"BSTAR":0.00052703625,"MEAN_MOTION_DOT":0.00011414,"MEAN_MOTION_DDOT":0},{"OBJECT_NAME":"DELTA 1 DEB","OBJECT_ID":"1977-065AM","EPOCH":"2026-03-09T22:03:01.031616","MEAN_MOTION":14.51643532,"ECCENTRICITY":0.03229519,"INCLINATION":28.9328,"RA_OF_ASC_NODE":276.015,"ARG_OF_PERICENTER":66.8309,"MEAN_ANOMALY":296.5959,"EPHEMERIS_TYPE":0,"CLASSIFICATION_TYPE":"U","NORAD_CAT_ID":10208,"ELEMENT_SET_NO":999,"REV_AT_EPOCH":43123,"BSTAR":0.0021583786,"MEAN_MOTION_DOT":0.00017761,"MEAN_MOTION_DDOT":0}]
